STARLINK-30882          
1 58379U 23178F   25251.93483150  .00000913  00000+0  42948-4 0  9994
2 58379  53.1599 125.3281 0001219  74.0396 286.0739 15.30194868102069
STARLINK-30915          
1 58380U 23178G   25251.70547178  .00001039  00000+0  47204-4 0  9992
2 58380  53.1614  36.6364 0001126  94.5120 265.6009 15.30198059103255
STARLINK-30923          
1 58381U 23178H   25251.94432695  .00001378  00000+0  58666-4 0  9996
2 58381  53.1584 125.3434 0001144 112.2929 247.8193 15.30188630101990
STARLINK-30927          
1 58382U 23178J   25251.95804782  .00000140  00000+0  16854-4 0  9997
2 58382  53.1607 125.4682 0001252  87.9157 272.1988 15.30194198102040
STARLINK-30921          
1 58383U 23178K   25251.94115318  .00001355  00000+0  57844-4 0  9990
2 58383  53.1593 125.3681 0000715  87.6059 272.5024 15.30204069102048
STARLINK-30825          
1 58384U 23178L   25252.05595056  .00000949  00000+0  44156-4 0  9995
2 58384  53.1594 124.6339 0000932  74.3419 285.7684 15.30203160102089
STARLINK-30930          
1 58385U 23178M   25251.91477765  .00001035  00000+0  47069-4 0  9999
2 58385  53.1606 125.1970 0001057  87.1588 272.9534 15.30188777101930
STARLINK-30929          
1 58386U 23178N   25252.04232097  .00002019  00000+0  80271-4 0  9997
2 58386  53.1602 125.0814 0000969  69.3270 290.7835 15.30193179102052
STARLINK-30898          
1 58387U 23178P   25251.96752469  .00000223  00000+0  19658-4 0  9994
2 58387  53.1600 125.4013 0000894  90.9961 269.1142 15.30188773102066
STARLINK-30913          
1 58388U 23178Q   25252.01913858  .00002956  00000+0  11189-3 0  9998
2 58388  53.1600 125.1392 0001101  95.0943 265.0183 15.30194837102071
STARLINK-30938          
1 58389U 23178R   25251.95593421  .00001412  00000+0  59805-4 0  9995
2 58389  53.1597 125.4547 0001108 103.5509 256.5615 15.30193323102065
STARLINK-30868          
1 58390U 23178S   25251.94749306  .00000311  00000+0  22629-4 0  9992
2 58390  53.1587 125.4039 0000917  70.9473 289.1627 15.30195535102068
STARLINK-30916          
1 58391U 23178T   25252.02650731  .00001527  00000+0  63651-4 0  9996
2 58391  53.1598 125.0836 0000996  93.3232 266.7883 15.30199150102074
STARLINK-30937          
1 58392U 23178U   25252.25004630  .00463016  00000+0  44711-2 0  9992
2 58392  53.1472 116.1710 0011015 218.0496 302.2017 15.64416253  5913
STARLINK-30939          
1 58393U 23178V   25251.93799031  .00001473  00000+0  61833-4 0  9994
2 58393  53.1600 125.3491 0001128 126.6113 233.4992 15.30199830101937
STARLINK-30887          
1 58394U 23178W   25252.03917717 -.00001144  00000+0 -26518-4 0  9998
2 58394  53.1605 125.0940 0001329  77.3679 282.7471 15.30178644102054
