[{"OBJECT_NAME":"STARLINK-30882","OBJECT_ID":"2023-178F","EPOCH":"2025-09-08T22:26:09.441600","MEAN_MOTION":15.30194868,"ECCENTRICITY":0.00012194,"INCLINATION":53.1599,"RA_OF_ASC_NODE":125.3281,"ARG_OF_PERICENTER":74.0396,"MEAN_ANOMALY":286.0739,"EPHEMERIS_TYPE":0,"CLASSIFICATION_TYPE":"U","NORAD_CAT_ID":58379,"ELEMENT_SET_NO":999,"REV_AT_EPOCH":10206,"BSTAR":4.2947537e-5,"MEAN_MOTION_DOT":9.13e-6,"MEAN_MOTION_DDOT":0},{"OBJECT_NAME":"STARLINK-30915","OBJECT_ID":"2023-178G","EPOCH":"2025-09-08T16:55:52.761792","MEAN_MOTION":15.30198059,"ECCENTRICITY":0.00011269,"INCLINATION":53.1614,"RA_OF_ASC_NODE":36.6364,"ARG_OF_PERICENTER":94.512,"MEAN_ANOMALY":265.6009,"EPHEMERIS_TYPE":0,"CLASSIFICATION_TYPE":"U","NORAD_CAT_ID":58380,"ELEMENT_SET_NO":999,"REV_AT_EPOCH":10325,"BSTAR":4.7204348e-5,"MEAN_MOTION_DOT":1.039e-5,"MEAN_MOTION_DDOT":0},{"OBJECT_NAME":"STARLINK-30923","OBJECT_ID":"2023-178H","EPOCH":"2025-09-08T22:39:49.848480","MEAN_MOTION":15.3018863,"ECCENTRICITY":0.00011441,"INCLINATION":53.1584,"RA_OF_ASC_NODE":125.3434,"ARG_OF_PERICENTER":112.2929,"MEAN_ANOMALY":247.8193,"EPHEMERIS_TYPE":0,"CLASSIFICATION_TYPE":"U","NORAD_CAT_ID":58381,"ELEMENT_SET_NO":999,"REV_AT_EPOCH":10199,"BSTAR":5.8665717e-5,"MEAN_MOTION_DOT":1.378e-5,"MEAN_MOTION_DDOT":0},{"OBJECT_NAME":"STARLINK-30927","OBJECT_ID":"2023-178J","EPOCH":"2025-09-08T22:59:35.331648","MEAN_MOTION":15.30194198,"ECCENTRICITY":0.00012527,"INCLINATION":53.1607,"RA_OF_ASC_NODE":125.4682,"ARG_OF_PERICENTER":87.9157,"MEAN_ANOMALY":272.1988,"EPHEMERIS_TYPE":0,"CLASSIFICATION_TYPE":"U","NORAD_CAT_ID":58382,"ELEMENT_SET_NO":999,"REV_AT_EPOCH":10204,"BSTAR":1.6853892e-5,"MEAN_MOTION_DOT":1.4e-6,"MEAN_MOTION_DDOT":0},{"OBJECT_NAME":"STARLINK-30921","OBJECT_ID":"2023-178K","EPOCH":"2025-09-08T22:35:15.634752","MEAN_MOTION":15.30204069,"ECCENTRICITY":7.154e-5,"INCLINATION":53.1593,"RA_OF_ASC_NODE":125.3681,"ARG_OF_PERICENTER":87.6059,"MEAN_ANOMALY":272.5024,"EPHEMERIS_TYPE":0,"CLASSIFICATION_TYPE":"U","NORAD_CAT_ID":58383,"ELEMENT_SET_NO":999,"REV_AT_EPOCH":10204,"BSTAR":5.7844229e-5,"MEAN_MOTION_DOT":1.355e-5,"MEAN_MOTION_DDOT":0},{"OBJECT_NAME":"STARLINK-30825","OBJECT_ID":"2023-178L","EPOCH":"2025-09-09T01:20:34.128384","MEAN_MOTION":15.3020316,"ECCENTRICITY":9.323e-5,"INCLINATION":53.1594,"RA_OF_ASC_NODE":124.6339,"ARG_OF_PERICENTER":74.3419,"MEAN_ANOMALY":285.7684,"EPHEMERIS_TYPE":0,"CLASSIFICATION_TYPE":"U","NORAD_CAT_ID":58384,"ELEMENT_SET_NO":999,"REV_AT_EPOCH":10208,"BSTAR":4.4155526e-5,"MEAN_MOTION_DOT":9.49e-6,"MEAN_MOTION_DDOT":0},{"OBJECT_NAME":"STARLINK-30930","OBJECT_ID":"2023-178M","EPOCH":"2025-09-08T21:57:16.788960","MEAN_MOTION":15.30188777,"ECCENTRICITY":0.00010578,"INCLINATION":53.1606,"RA_OF_ASC_NODE":125.197,"ARG_OF_PERICENTER":87.1588,"MEAN_ANOMALY":272.9534,"EPHEMERIS_TYPE":0,"CLASSIFICATION_TYPE":"U","NORAD_CAT_ID":58385,"ELEMENT_SET_NO":999,"REV_AT_EPOCH":10193,"BSTAR":4.7069108e-5,"MEAN_MOTION_DOT":1.035e-5,"MEAN_MOTION_DDOT":0},{"OBJECT_NAME":"STARLINK-30929","OBJECT_ID":"2023-178N","EPOCH":"2025-09-09T01:00:56.531808","MEAN_MOTION":15.30193179,"ECCENTRICITY":9.696e-5,"INCLINATION":53.1602,"RA_OF_ASC_NODE":125.0814,"ARG_OF_PERICENTER":69.327,"MEAN_ANOMALY":290.7835,"EPHEMERIS_TYPE":0,"CLASSIFICATION_TYPE":"U","NORAD_CAT_ID":58386,"ELEMENT_SET_NO":999,"REV_AT_EPOCH":10205,"BSTAR":8.0271028e-5,"MEAN_MOTION_DOT":2.019e-5,"MEAN_MOTION_DDOT":0},{"OBJECT_NAME":"STARLINK-30898","OBJECT_ID":"2023-178P","EPOCH":"2025-09-08T23:13:14.133216","MEAN_MOTION":15.30188773,"ECCENTRICITY":8.944e-5,"INCLINATION":53.16,"RA_OF_ASC_NODE":125.4013,"ARG_OF_PERICENTER":90.9961,"MEAN_ANOMALY":269.1142,"EPHEMERIS_TYPE":0,"CLASSIFICATION_TYPE":"U","NORAD_CAT_ID":58387,"ELEMENT_SET_NO":999,"REV_AT_EPOCH":10206,"BSTAR":1.965756e-5,"MEAN_MOTION_DOT":2.23e-6,"MEAN_MOTION_DDOT":0},{"OBJECT_NAME":"STARLINK-30913","OBJECT_ID":"2023-178Q","EPOCH":"2025-09-09T00:27:33.573312","MEAN_MOTION":15.30194837,"ECCENTRICITY":0.00011018,"INCLINATION":53.16,"RA_OF_ASC_NODE":125.1392,"ARG_OF_PERICENTER":95.0943,"MEAN_ANOMALY":265.0183,"EPHEMERIS_TYPE":0,"CLASSIFICATION_TYPE":"U","NORAD_CAT_ID":58388,"ELEMENT_SET_NO":999,"REV_AT_EPOCH":10207,"BSTAR":0.00011189308,"MEAN_MOTION_DOT":2.956e-5,"MEAN_MOTION_DDOT":0},{"OBJECT_NAME":"STARLINK-30938","OBJECT_ID":"2023-178R","EPOCH":"2025-09-08T22:56:32.715744","MEAN_MOTION":15.30193323,"ECCENTRICITY":0.0001108,"INCLINATION":53.1597,"RA_OF_ASC_NODE":125.4547,"ARG_OF_PERICENTER":103.5509,"MEAN_ANOMALY":256.5615,"EPHEMERIS_TYPE":0,"CLASSIFICATION_TYPE":"U","NORAD_CAT_ID":58389,"ELEMENT_SET_NO":999,"REV_AT_EPOCH":10206,"BSTAR":5.9805027e-5,"MEAN_MOTION_DOT":1.412e-5,"MEAN_MOTION_DDOT":0},{"OBJECT_NAME":"STARLINK-30868","OBJECT_ID":"2023-178S","EPOCH":"2025-09-08T22:44:23.400384","MEAN_MOTION":15.30195535,"ECCENTRICITY":9.173e-5,"INCLINATION":53.1587,"RA_OF_ASC_NODE":125.4039,"ARG_OF_PERICENTER":70.9473,"MEAN_ANOMALY":289.1627,"EPHEMERIS_TYPE":0,"CLASSIFICATION_TYPE":"U","NORAD_CAT_ID":58390,"ELEMENT_SET_NO":999,"REV_AT_EPOCH":10206,"BSTAR":2.2628871e-5,"MEAN_MOTION_DOT":3.11e-6,"MEAN_MOTION_DDOT":0},{"OBJECT_NAME":"STARLINK-30916","OBJECT_ID":"2023-178T","EPOCH":"2025-09-09T00:38:10.231584","MEAN_MOTION":15.3019915,"ECCENTRICITY":9.964e-5,"INCLINATION":53.1598,"RA_OF_ASC_NODE":125.0836,"ARG_OF_PERICENTER":93.3232,"MEAN_ANOMALY":266.7883,"EPHEMERIS_TYPE":0,"CLASSIFICATION_TYPE":"U","NORAD_CAT_ID":58391,"ELEMENT_SET_NO":999,"REV_AT_EPOCH":10207,"BSTAR":6.365097e-5,"MEAN_MOTION_DOT":1.527e-5,"MEAN_MOTION_DDOT":0},{"OBJECT_NAME":"STARLINK-30937","OBJECT_ID":"2023-178U","EPOCH":"2025-09-09T06:00:04.000320","MEAN_MOTION":15.64416253,"ECCENTRICITY":0.00110155,"INCLINATION":53.1472,"RA_OF_ASC_NODE":116.171,"ARG_OF_PERICENTER":218.0496,"MEAN_ANOMALY":302.2017,"EPHEMERIS_TYPE":0,"CLASSIFICATION_TYPE":"U","NORAD_CAT_ID":58392,"ELEMENT_SET_NO":999,"REV_AT_EPOCH":591,"BSTAR":0.004471057,"MEAN_MOTION_DOT":0.00463016,"MEAN_MOTION_DDOT":0},{"OBJECT_NAME":"STARLINK-30939","OBJECT_ID":"2023-178V","EPOCH":"2025-09-08T22:30:42.362784","MEAN_MOTION":15.3019983,"ECCENTRICITY":0.00011289,"INCLINATION":53.16,"RA_OF_ASC_NODE":125.3491,"ARG_OF_PERICENTER":126.6113,"MEAN_ANOMALY":233.4992,"EPHEMERIS_TYPE":0,"CLASSIFICATION_TYPE":"U","NORAD_CAT_ID":58393,"ELEMENT_SET_NO":999,"REV_AT_EPOCH":10193,"BSTAR":6.1833396e-5,"MEAN_MOTION_DOT":1.473e-5,"MEAN_MOTION_DDOT":0},{"OBJECT_NAME":"STARLINK-30887","OBJECT_ID":"2023-178W","EPOCH":"2025-09-09T00:56:24.907488","MEAN_MOTION":15.30178644,"ECCENTRICITY":0.00013291,"INCLINATION":53.1605,"RA_OF_ASC_NODE":125.094,"ARG_OF_PERICENTER":77.3679,"MEAN_ANOMALY":282.7471,"EPHEMERIS_TYPE":0,"CLASSIFICATION_TYPE":"U","NORAD_CAT_ID":58394,"ELEMENT_SET_NO":999,"REV_AT_EPOCH":10205,"BSTAR":-2.6518043e-5,"MEAN_MOTION_DOT":-1.144e-5,"MEAN_MOTION_DDOT":0}]
